ONEWEB-0210             
1 48787U 21045W   24186.87517688  .00000077  00000+0  17077-3 0  9995
2 48787  87.9020  40.9315 0002645  74.5702 285.5720 13.15549949150663
ONEWEB-0214             
1 48788U 21045X   24187.11285602  .00000221  00000+0  55367-3 0  9997
2 48788  87.9020  40.8730 0002459  81.9361 278.2048 13.15550492151781
ONEWEB-0221             
1 48789U 21045Y   24186.89103443  .00000180  00000+0  44535-3 0  9993
2 48789  87.9024  40.9357 0001854  75.4053 284.7283 13.15548889150729
ONEWEB-0213             
1 48790U 21045Z   24187.10809807  .00000096  00000+0  22051-3 0  9992
2 48790  87.9021  40.9057 0001999  73.7829 286.3521 13.15550715151946
ONEWEB-0212             
1 48791U 21045AA  24186.85694972 -.00000299  00000+0 -82953-3 0  9993
2 48791  87.9024  40.9386 0001728  84.0898 276.0429 13.15548098150770
ONEWEB-0227             
1 48792U 21045AB  24186.85615855 -.00000156  00000+0 -44764-3 0  9997
2 48792  87.9023  40.9543 0001832  78.7703 281.3633 13.15546833150722
ONEWEB-0226             
1 48793U 21045AC  24187.15405248 -.00000026  00000+0 -10231-3 0  9993
2 48793  87.9023  40.9015 0002264  75.0989 285.0392 13.15546881151854
ONEWEB-0224             
1 48794U 21045AD  24186.88943887  .00000210  00000+0  52405-3 0  9991
2 48794  87.9027  40.9761 0001305  44.8190 315.3045 13.15550723150626
